{
    "links": {
        "self": "http://www.neowsapp.com/rest/v1/neo/3645035?api_key=iIulBulltgU6a56xZRHN4H3l9WmuAYTsLGpBGhQ2"
    },
    "id": "3645035",
    "neo_reference_id": "3645035",
    "name": "(2013 NS13)",
    "designation": "2013 NS13",
    "nasa_jpl_url": "http://ssd.jpl.nasa.gov/sbdb.cgi?sstr=3645035",
    "absolute_magnitude_h": 25.5,
    "estimated_diameter": {
        "kilometers": {
            "estimated_diameter_min": 0.0211132445,
            "estimated_diameter_max": 0.0472106499
        },
        "meters": {
            "estimated_diameter_min": 21.113244479,
            "estimated_diameter_max": 47.2106498806
        },
        "miles": {
            "estimated_diameter_min": 0.0131191578,
            "estimated_diameter_max": 0.0293353287
        },
        "feet": {
            "estimated_diameter_min": 69.2691770164,
            "estimated_diameter_max": 154.8905885541
        }
    },
    "is_potentially_hazardous_asteroid": false,
    "close_approach_data": [
        {
            "close_approach_date": "2013-07-18",
            "close_approach_date_full": "2013-Jul-18 01:35",
            "epoch_date_close_approach": 1374111300000,
            "relative_velocity": {
                "kilometers_per_second": "10.0628669502",
                "kilometers_per_hour": "36226.3210206415",
                "miles_per_hour": "22509.6270808536"
            },
            "miss_distance": {
                "astronomical": "0.0407648734",
                "lunar": "15.8575357526",
                "kilometers": "6098338.231459658",
                "miles": "3789331.6633849604"
            },
            "orbiting_body": "Earth"
        }
    ],
    "orbital_data": {
        "orbit_id": "6",
        "orbit_determination_date": "2017-04-06 08:45:24",
        "first_observation_date": "2013-07-12",
        "last_observation_date": "2013-07-14",
        "data_arc_in_days": 2,
        "observations_used": 16,
        "orbit_uncertainty": "8",
        "minimum_orbit_intersection": ".0101069",
        "jupiter_tisserand_invariant": "3.669",
        "epoch_osculation": "2456486.5",
        "eccentricity": ".5121456795855966",
        "semi_major_axis": "1.995239499684374",
        "inclination": "3.842634455597008",
        "ascending_node_longitude": "115.0170168234077",
        "orbital_period": "1029.416150874569",
        "perihelion_distance": ".9733862101824943",
        "perihelion_argument": "217.7988015965296",
        "aphelion_distance": "3.017092789186253",
        "perihelion_time": "2456520.960481396329",
        "mean_anomaly": "347.9487287117666",
        "mean_motion": ".3497127956406669",
        "equinox": "J2000",
        "orbit_class": {
            "orbit_class_type": "APO",
            "orbit_class_description": "Near-Earth asteroid orbits which cross the Earth’s orbit similar to that of 1862 Apollo",
            "orbit_class_range": "a (semi-major axis) > 1.0 AU; q (perihelion) < 1.017 AU"
        }
    },
    "is_sentry_object": false
}